FENGYUN 3A              
1 32958U 08026A   26170.72570560  .00000060  00000+0  49120-4 0  9996
2 32958  98.6883 111.5114 0009687 117.0201 243.1965 14.19571589935767
EWS-G2 (GOES 15)        
1 36411U 10008A   26170.81078443  .00000014  00000+0  00000+0 0  9998
2 36411   1.2858  82.8080 0004906  42.1464 138.6248  1.00266643 59663
FENGYUN 3B              
1 37214U 10059A   26170.85838267  .00000020  00000+0  33874-4 0  9995
2 37214  98.9611 216.8846 0022078 176.4669 289.1158 14.14841265807809
EXACTVIEW-1 (ADS-1B)    
1 38709U 12039C   26170.55792594  .00000087  00000+0  57017-4 0  9992
2 38709  98.9781 288.0016 0011289 159.8104 200.3523 14.24985146723040
FENGYUN 3C              
1 39260U 13052A   26170.80008013  .00000056  00000+0  49450-4 0  9993
2 39260  98.4987 144.5549 0015094  20.4550 339.7226 14.15755598658937
DUBAISAT-2              
1 39419U 13066D   26170.85366375  .00003581  00000+0  22274-3 0  9997
2 39419  97.4569 160.9278 0011990  32.1162 328.0796 15.10197504686790
FENGYUN 2G              
1 40367U 14090A   26170.77009894 -.00000310  00000+0  00000+0 0  9997
2 40367   5.6465  72.7874 0003826 158.5034  53.6178  1.00270908 42023
ELEKTRO-L 2             
1 41105U 15074A   26169.03651196 -.00000126  00000+0  00000+0 0  9991
2 41105   6.6975  70.5132 0000902 256.1704 298.2263  1.00270556 38515
FENGYUN 2H              
1 43491U 18050A   26170.92071413 -.00000136  00000+0  00000+0 0  9997
2 43491   3.0393  79.0438 0001913 137.5601 102.3745  1.00269309 29462
EOS-4                   
1 51656U 22013A   26170.81111361  .00001337  00000+0  79977-4 0  9995
2 51656  97.5109 177.4203 0001912  92.0496 268.0953 15.12732816239882
