{
 "generated_at": "2026-06-20T08:22:11Z",
 "sources": [
  {
   "name": "CelesTrak",
   "url": "https://celestrak.org/NORAD/elements/",
   "license": "frei verfügbar; Attribution. Ursprünglich USSPACECOM/Space-Track."
  },
  {
   "name": "GCAT (J. McDowell, planet4589.org)",
   "url": "https://planet4589.org/space/gcat/",
   "license": "CC-BY 4.0"
  }
 ],
 "satellites": [
  {
   "norad": 39419,
   "name": "DUBAISAT-2",
   "intl": "2013-066D",
   "group": "resource",
   "gcat": {
    "class": "C",
    "category": "IMG",
    "owner": "EIAST",
    "state": "UAE"
   },
   "omm": {
    "OBJECT_NAME": "DUBAISAT-2",
    "OBJECT_ID": "2013-066D",
    "EPOCH": "2026-06-19T20:29:16.548000",
    "MEAN_MOTION": 15.10197504,
    "ECCENTRICITY": 0.001199,
    "INCLINATION": 97.4569,
    "RA_OF_ASC_NODE": 160.9278,
    "ARG_OF_PERICENTER": 32.1162,
    "MEAN_ANOMALY": 328.0796,
    "EPHEMERIS_TYPE": 0,
    "CLASSIFICATION_TYPE": "U",
    "NORAD_CAT_ID": 39419,
    "ELEMENT_SET_NO": 999,
    "REV_AT_EPOCH": 68679,
    "BSTAR": 0.00022274,
    "MEAN_MOTION_DOT": 0.00003581,
    "MEAN_MOTION_DDOT": 0
   }
  },
  {
   "norad": 41105,
   "name": "ELEKTRO-L 2",
   "intl": "2015-074A",
   "group": "weather",
   "gcat": {
    "class": "C",
    "category": "MET",
    "owner": "RGMS/NPOLO",
    "state": "RU"
   },
   "omm": {
    "OBJECT_NAME": "ELEKTRO-L 2",
    "OBJECT_ID": "2015-074A",
    "EPOCH": "2026-06-18T00:52:34.633344",
    "MEAN_MOTION": 1.00270556,
    "ECCENTRICITY": 0.00009025,
    "INCLINATION": 6.6975,
    "RA_OF_ASC_NODE": 70.5132,
    "ARG_OF_PERICENTER": 256.1704,
    "MEAN_ANOMALY": 298.2263,
    "EPHEMERIS_TYPE": 0,
    "CLASSIFICATION_TYPE": "U",
    "NORAD_CAT_ID": 41105,
    "ELEMENT_SET_NO": 999,
    "REV_AT_EPOCH": 3851,
    "BSTAR": 0,
    "MEAN_MOTION_DOT": -0.00000126,
    "MEAN_MOTION_DDOT": 0
   }
  },
  {
   "norad": 51656,
   "name": "EOS-4",
   "intl": "2022-013A",
   "group": "sar",
   "gcat": {
    "class": "C",
    "category": "IMG-R",
    "owner": "ISRO",
    "state": "IN"
   },
   "omm": {
    "OBJECT_NAME": "EOS-4",
    "OBJECT_ID": "2022-013A",
    "EPOCH": "2026-06-19T19:28:00.215904",
    "MEAN_MOTION": 15.12732816,
    "ECCENTRICITY": 0.0001912,
    "INCLINATION": 97.5109,
    "RA_OF_ASC_NODE": 177.4203,
    "ARG_OF_PERICENTER": 92.0496,
    "MEAN_ANOMALY": 268.0953,
    "EPHEMERIS_TYPE": 0,
    "CLASSIFICATION_TYPE": "U",
    "NORAD_CAT_ID": 51656,
    "ELEMENT_SET_NO": 999,
    "REV_AT_EPOCH": 23988,
    "BSTAR": 0.000079977,
    "MEAN_MOTION_DOT": 0.00001337,
    "MEAN_MOTION_DDOT": 0
   }
  },
  {
   "norad": 36411,
   "name": "EWS-G2 (GOES 15)",
   "intl": "2010-008A",
   "group": "weather",
   "gcat": {
    "class": "C",
    "category": "MET",
    "owner": "NOAA",
    "state": "US"
   },
   "omm": {
    "OBJECT_NAME": "EWS-G2 (GOES 15)",
    "OBJECT_ID": "2010-008A",
    "EPOCH": "2026-06-19T19:27:31.774752",
    "MEAN_MOTION": 1.00266643,
    "ECCENTRICITY": 0.0004906,
    "INCLINATION": 1.2858,
    "RA_OF_ASC_NODE": 82.808,
    "ARG_OF_PERICENTER": 42.1464,
    "MEAN_ANOMALY": 138.6248,
    "EPHEMERIS_TYPE": 0,
    "CLASSIFICATION_TYPE": "U",
    "NORAD_CAT_ID": 36411,
    "ELEMENT_SET_NO": 999,
    "REV_AT_EPOCH": 5966,
    "BSTAR": 0,
    "MEAN_MOTION_DOT": 1.4e-7,
    "MEAN_MOTION_DDOT": 0
   }
  },
  {
   "norad": 38709,
   "name": "EXACTVIEW-1 (ADS-1B)",
   "intl": "2012-039C",
   "group": "resource",
   "gcat": {
    "class": "B",
    "category": "COM",
    "owner": "EXEA",
    "state": "CA"
   },
   "omm": {
    "OBJECT_NAME": "EXACTVIEW-1 (ADS-1B)",
    "OBJECT_ID": "2012-039C",
    "EPOCH": "2026-06-19T13:23:24.801216",
    "MEAN_MOTION": 14.24985146,
    "ECCENTRICITY": 0.00112898,
    "INCLINATION": 98.9781,
    "RA_OF_ASC_NODE": 288.0016,
    "ARG_OF_PERICENTER": 159.8104,
    "MEAN_ANOMALY": 200.3523,
    "EPHEMERIS_TYPE": 0,
    "CLASSIFICATION_TYPE": "U",
    "NORAD_CAT_ID": 38709,
    "ELEMENT_SET_NO": 999,
    "REV_AT_EPOCH": 72304,
    "BSTAR": 0.000057016868,
    "MEAN_MOTION_DOT": 8.7e-7,
    "MEAN_MOTION_DDOT": 0
   }
  },
  {
   "norad": 40367,
   "name": "FENGYUN 2G",
   "intl": "2014-090A",
   "group": "weather",
   "gcat": {
    "class": "C",
    "category": "MET",
    "owner": "NSMC",
    "state": "CN"
   },
   "omm": {
    "OBJECT_NAME": "FENGYUN 2G",
    "OBJECT_ID": "2014-090A",
    "EPOCH": "2026-06-19T18:28:56.548416",
    "MEAN_MOTION": 1.00270908,
    "ECCENTRICITY": 0.0003826,
    "INCLINATION": 5.6465,
    "RA_OF_ASC_NODE": 72.7874,
    "ARG_OF_PERICENTER": 158.5034,
    "MEAN_ANOMALY": 53.6178,
    "EPHEMERIS_TYPE": 0,
    "CLASSIFICATION_TYPE": "U",
    "NORAD_CAT_ID": 40367,
    "ELEMENT_SET_NO": 999,
    "REV_AT_EPOCH": 4202,
    "BSTAR": 0,
    "MEAN_MOTION_DOT": -0.0000031,
    "MEAN_MOTION_DDOT": 0
   }
  },
  {
   "norad": 43491,
   "name": "FENGYUN 2H",
   "intl": "2018-050A",
   "group": "weather",
   "gcat": {
    "class": "C",
    "category": "MET",
    "owner": "NSMC",
    "state": "CN"
   },
   "omm": {
    "OBJECT_NAME": "FENGYUN 2H",
    "OBJECT_ID": "2018-050A",
    "EPOCH": "2026-06-19T22:05:49.700832",
    "MEAN_MOTION": 1.00269309,
    "ECCENTRICITY": 0.0001913,
    "INCLINATION": 3.0393,
    "RA_OF_ASC_NODE": 79.0438,
    "ARG_OF_PERICENTER": 137.5601,
    "MEAN_ANOMALY": 102.3745,
    "EPHEMERIS_TYPE": 0,
    "CLASSIFICATION_TYPE": "U",
    "NORAD_CAT_ID": 43491,
    "ELEMENT_SET_NO": 999,
    "REV_AT_EPOCH": 2946,
    "BSTAR": 0,
    "MEAN_MOTION_DOT": -0.00000136,
    "MEAN_MOTION_DDOT": 0
   }
  },
  {
   "norad": 32958,
   "name": "FENGYUN 3A",
   "intl": "2008-026A",
   "group": "weather",
   "gcat": {
    "class": null,
    "category": null,
    "owner": null,
    "state": null
   },
   "omm": {
    "OBJECT_NAME": "FENGYUN 3A",
    "OBJECT_ID": "2008-026A",
    "EPOCH": "2026-06-19T17:25:00.963840",
    "MEAN_MOTION": 14.19571589,
    "ECCENTRICITY": 0.0009687,
    "INCLINATION": 98.6883,
    "RA_OF_ASC_NODE": 111.5114,
    "ARG_OF_PERICENTER": 117.0201,
    "MEAN_ANOMALY": 243.1965,
    "EPHEMERIS_TYPE": 0,
    "CLASSIFICATION_TYPE": "U",
    "NORAD_CAT_ID": 32958,
    "ELEMENT_SET_NO": 999,
    "REV_AT_EPOCH": 93576,
    "BSTAR": 0.00004912,
    "MEAN_MOTION_DOT": 6e-7,
    "MEAN_MOTION_DDOT": 0
   }
  },
  {
   "norad": 37214,
   "name": "FENGYUN 3B",
   "intl": "2010-059A",
   "group": "weather",
   "gcat": {
    "class": null,
    "category": null,
    "owner": null,
    "state": null
   },
   "omm": {
    "OBJECT_NAME": "FENGYUN 3B",
    "OBJECT_ID": "2010-059A",
    "EPOCH": "2026-06-19T20:36:04.262688",
    "MEAN_MOTION": 14.14841265,
    "ECCENTRICITY": 0.0022078,
    "INCLINATION": 98.9611,
    "RA_OF_ASC_NODE": 216.8846,
    "ARG_OF_PERICENTER": 176.4669,
    "MEAN_ANOMALY": 289.1158,
    "EPHEMERIS_TYPE": 0,
    "CLASSIFICATION_TYPE": "U",
    "NORAD_CAT_ID": 37214,
    "ELEMENT_SET_NO": 999,
    "REV_AT_EPOCH": 80780,
    "BSTAR": 0.000033874,
    "MEAN_MOTION_DOT": 2e-7,
    "MEAN_MOTION_DDOT": 0
   }
  },
  {
   "norad": 39260,
   "name": "FENGYUN 3C",
   "intl": "2013-052A",
   "group": "weather",
   "gcat": {
    "class": "C",
    "category": "MET",
    "owner": "NSMC",
    "state": "CN"
   },
   "omm": {
    "OBJECT_NAME": "FENGYUN 3C",
    "OBJECT_ID": "2013-052A",
    "EPOCH": "2026-06-19T19:12:06.923232",
    "MEAN_MOTION": 14.15755598,
    "ECCENTRICITY": 0.0015094,
    "INCLINATION": 98.4987,
    "RA_OF_ASC_NODE": 144.5549,
    "ARG_OF_PERICENTER": 20.455,
    "MEAN_ANOMALY": 339.7226,
    "EPHEMERIS_TYPE": 0,
    "CLASSIFICATION_TYPE": "U",
    "NORAD_CAT_ID": 39260,
    "ELEMENT_SET_NO": 999,
    "REV_AT_EPOCH": 65893,
    "BSTAR": 0.00004945,
    "MEAN_MOTION_DOT": 5.6e-7,
    "MEAN_MOTION_DDOT": 0
   }
  }
 ]
}
